NORAD_CAT_ID,OBJECT_NAME,OBJECT_TYPE,EPOCH,MEAN_MOTION,ECCENTRICITY,INCLINATION,RA_OF_ASC_NODE,ARG_OF_PERICENTER,MEAN_ANOMALY,BSTAR,MEAN_MOTION_DOT,MEAN_MOTION_DDOT,TLE_LINE0,TLE_LINE1,TLE_LINE2,SEMIMAJOR_AXIS,PERIOD,APOGEE,PERIGEE,DECAYED
51728.0,STARLINK-3448,PAYLOAD,2022-12-31 10:31:43,15.08857847,0.0002958,53.2168,145.6587,41.7071,318.4146,0.00065923,0.00010224,0.0,0 STARLINK-3448,1 51728U 22016Q   22365.43869434  .00010224  00000-0  65923-3 0  9990,2 51728  53.2168 145.6587 0002958  41.7071 318.4146 15.08857847 47809,6917.826,95.436,541.737,537.645,0.0
51728.0,STARLINK-3448,PAYLOAD,2022-12-31 20:04:01,15.08859515,0.0002935,53.2168,143.8747,41.0578,319.0635,0.00040301,6.135e-05,0.0,0 STARLINK-3448,1 51728U 22016Q   22365.83613068  .00006135  00000-0  40301-3 0  9993,2 51728  53.2168 143.8747 0002935  41.0578 319.0635 15.08859515 48992,6917.821,95.436,541.716,537.655,0.0
51728.0,STARLINK-3448,PAYLOAD,2023-01-01 07:11:43,15.08838066,0.0002777,53.2166,141.7931,40.3704,319.7493,-0.00029916,-5.047e-05,0.0,0 STARLINK-3448,1 51728U 22016Q   23001.29981289 -.00005047  00000-0 -29916-3 0  9996,2 51728  53.2166 141.7931 0002777  40.3704 319.7493 15.08838066 49065,6917.886,95.438,541.672,537.83,0.0
51728.0,STARLINK-3448,PAYLOAD,2023-01-01 11:57:53,15.08834578,0.0002759,53.2161,140.9006,40.0899,320.0296,-0.00027079,-4.595e-05,0.0,0 STARLINK-3448,1 51728U 22016Q   23001.49853285 -.00004595  00000-0 -27079-3 0  9997,2 51728  53.2161 140.9006 0002759  40.0899 320.0296 15.08834578 47963,6917.897,95.438,541.6709999999998,537.8530000000002,0.0
51728.0,STARLINK-3448,PAYLOAD,2023-01-01 16:44:02,15.08834841,0.000276,53.2163,140.0086,39.8938,320.2257,5.0997e-05,5.23e-06,0.0,0 STARLINK-3448,1 51728U 22016Q   23001.69725448  .00000523  00000-0  50997-4 0  9999,2 51728  53.2163 140.0086 0002760  39.8938 320.2257 15.08834841 47991,6917.896,95.438,541.67,537.852,0.0
51728.0,STARLINK-3448,PAYLOAD,2023-01-02 14:59:26,15.08845791,0.0002872,53.2164,135.8457,39.6391,320.4811,0.00061726,9.551e-05,0.0,0 STARLINK-3448,1 51728U 22016Q   23002.62461678  .00009551  00000-0  61726-3 0  9996,2 51728  53.2164 135.8457 0002872  39.6391 320.4811 15.08845791 49267,6917.863,95.437,541.714,537.741,0.0
51728.0,STARLINK-3448,PAYLOAD,2023-01-03 02:07:08,15.08840365,0.0002862,53.2167,133.7639,39.602,320.5181,0.00020283,2.941e-05,0.0,0 STARLINK-3448,1 51728U 22016Q   23003.08829792  .00002941  00000-0  20283-3 0  9991,2 51728  53.2167 133.7639 0002862  39.6020 320.5181 15.08840365 49338,6917.879,95.438,541.724,537.764,0.0
51728.0,STARLINK-3448,PAYLOAD,2023-01-03 08:28:41,15.08840041,0.00029,53.2169,132.5747,40.402,319.7187,0.00020805,3.024e-05,0.0,0 STARLINK-3448,1 51728U 22016Q   23003.35325943  .00003024  00000-0  20805-3 0  9993,2 51728  53.2169 132.5747 0002900  40.4020 319.7187 15.08840041 48246,6917.88,95.438,541.751,537.739,0.0
51728.0,STARLINK-3448,PAYLOAD,2023-01-04 14:41:00,15.0885507,0.0002996999999999,53.2179,126.9266,39.2302,320.8907,0.0003679,5.574e-05,0.0,0 STARLINK-3448,1 51728U 22016Q   23004.61181379  .00005574  00000-0  36790-3 0  9998,2 51728  53.2179 126.9266 0002997  39.2302 320.8907 15.08855070 49562,6917.834,95.437,541.773,537.626,0.0
51728.0,STARLINK-3448,PAYLOAD,2023-01-05 08:10:14,15.08855121,0.0003208999999999,53.2179,123.6555,32.0894,328.0293,0.00027401,4.077e-05,0.0,0 STARLINK-3448,1 51728U 22016Q   23005.34044863  .00004077  00000-0  27401-3 0  9991,2 51728  53.2179 123.6555 0003209  32.0894 328.0293 15.08855121 49678,6917.834,95.437,541.919,537.479,0.0
51728.0,STARLINK-3448,PAYLOAD,2023-01-05 14:31:46,15.08860069,0.0002917,53.2187,122.464,34.0435,326.0744,0.0002672,3.969e-05,0.0,0 STARLINK-3448,1 51728U 22016Q   23005.60540326  .00003969  00000-0  26720-3 0  9997,2 51728  53.2187 122.4640 0002917  34.0435 326.0744 15.08860069 48582,6917.819,95.436,541.702,537.6659999999998,0.0
51728.0,STARLINK-3448,PAYLOAD,2023-01-06 08:01:01,15.08832739,0.0002755,53.2178,119.1952,32.8669,327.2494,-0.00039315,-6.539e-05,0.0,0 STARLINK-3448,1 51728U 22016Q   23006.33404683 -.00006539  00000-0 -39315-3 0  9995,2 51728  53.2178 119.1952 0002755  32.8669 327.2494 15.08832739 49822,6917.903,95.438,541.673,537.862,0.0
51728.0,STARLINK-3448,PAYLOAD,2023-01-06 17:33:20,15.08829255,0.0002749,53.2179,117.4114,30.954,329.1614,-0.00029528,-4.984e-05,0.0,0 STARLINK-3448,1 51728U 22016Q   23006.73149001 -.00004984  00000-0 -29528-3 0  9996,2 51728  53.2179 117.4114 0002749  30.9540 329.1614 15.08829255 48759,6917.913000000001,95.438,541.68,537.876,0.0
51728.0,STARLINK-3448,PAYLOAD,2023-01-07 06:16:25,15.08843543,0.0002507,53.2197,115.0322,29.3199,330.7933,0.00028539,4.257e-05,0.0,0 STARLINK-3448,1 51728U 22016Q   23007.26140809  .00004257  00000-0  28539-3 0  9994,2 51728  53.2197 115.0322 0002507  29.3199 330.7933 15.08843543 48835,6917.87,95.437,541.469,538.0,0.0
51728.0,STARLINK-3448,PAYLOAD,2023-01-07 07:51:48,15.08842904,0.00026,53.2198,114.7348,26.5238,333.5887,0.00055505,8.557e-05,0.0,0 STARLINK-3448,1 51728U 22016Q   23007.32764984  .00008557  00000-0  55505-3 0  9997,2 51728  53.2198 114.7348 0002600  26.5238 333.5887 15.08842904 49972,6917.871999999999,95.437,541.535,537.938,0.0
51728.0,STARLINK-3448,PAYLOAD,2023-01-07 15:48:45,15.088300699999998,0.0002528,53.2198,113.248,21.9244,338.1856,0.000209,3.039e-05,0.0,0 STARLINK-3448,1 51728U 22016Q   23007.65885518  .00003039  00000-0  20900-3 0  9991,2 51728  53.2198 113.2480 0002528  21.9244 338.1856 15.08830070 50024,6917.911,95.438,541.525,538.0269999999998,0.0
51728.0,STARLINK-3448,PAYLOAD,2023-01-08 01:21:04,15.08815075,0.0002662,53.2189,111.4647,22.6015,337.5094,-0.00020275,-3.512e-05,0.0,0 STARLINK-3448,1 51728U 22016Q   23008.05630582 -.00003512  00000-0 -20275-3 0  9998,2 51728  53.2189 111.4647 0002662  22.6015 337.5094 15.08815075 50083,6917.956999999999,95.439,541.663,537.98,0.0
51728.0,STARLINK-3448,PAYLOAD,2023-01-08 09:18:00,15.08822113,0.0002748,53.2183,109.9776,23.0863,337.0252,0.00017027,2.421e-05,0.0,0 STARLINK-3448,1 51728U 22016Q   23008.38750961  .00002421  00000-0  17027-3 0  9995,2 51728  53.2183 109.9776 0002748  23.0863 337.0252 15.08822113 49005,6917.935,95.439,541.701,537.899,0.0
51728.0,STARLINK-3448,PAYLOAD,2023-01-08 15:39:33,15.08828751,0.0002766,53.218,108.7882,23.9523,336.1597,0.00023067,3.384e-05,0.0,0 STARLINK-3448,1 51728U 22016Q   23008.65246967  .00003384  00000-0  23067-3 0  9991,2 51728  53.2180 108.7882 0002766  23.9523 336.1597 15.08828751 50175,6917.915,95.438,541.693,537.866,0.0
51728.0,STARLINK-3448,PAYLOAD,2023-01-09 05:58:01,15.08851303,0.0002837,53.2173,106.1125,20.9528,339.158,0.00079818,0.00012442,0.0,0 STARLINK-3448,1 51728U 22016Q   23009.24862628  .00012442  00000-0  79818-3 0  9995,2 51728  53.2173 106.1125 0002837  20.9528 339.1580 15.08851303 50264,6917.846,95.437,541.673,537.748,0.0
51728.0,STARLINK-3448,PAYLOAD,2023-01-09 12:19:33,15.08860483,0.0002873,53.2173,104.923,21.7377,338.3736,0.0008535999999999,0.00013331,0.0,0 STARLINK-3448,1 51728U 22016Q   23009.51358301  .00013331  00000-0  85360-3 0  9990,2 51728  53.2173 104.9230 0002873  21.7377 338.3736 15.08860483 49179,6917.818,95.436,541.67,537.695,0.0
51728.0,STARLINK-3448,PAYLOAD,2023-01-10 01:02:38,15.08853774,0.0002913,53.2175,102.5445,21.7492,338.3624,0.00029732,4.448e-05,0.0,0 STARLINK-3448,1 51728U 22016Q   23010.04350010  .00004448  00000-0  29732-3 0  9999,2 51728  53.2175 102.5445 0002913  21.7492 338.3624 15.08853774 50382,6917.838000000002,95.437,541.7180000000002,537.688,0.0
51728.0,STARLINK-3448,PAYLOAD,2023-01-10 12:10:20,15.08844372,0.0002863,53.2172,100.4628,21.2743,338.8367,0.00018469,2.653e-05,0.0,0 STARLINK-3448,1 51728U 22016Q   23010.50718050  .00002653  00000-0  18469-3 0  9993,2 51728  53.2172 100.4628 0002863  21.2743 338.8367 15.08844372 50458,6917.866999999998,95.437,541.7130000000002,537.751,0.0
51728.0,STARLINK-3448,PAYLOAD,2023-01-11 12:01:07,15.08859104,0.0002964,53.2173,96.0018,22.4965,337.6157,0.0008445999999999,0.00013187,0.0,0 STARLINK-3448,1 51728U 22016Q   23011.50077779  .00013187  00000-0  84460-3 0  9998,2 51728  53.2173  96.0018 0002964  22.4965 337.6157 15.08859104 49476,6917.821999999999,95.436,541.737,537.637,0.0
51728.0,STARLINK-3448,PAYLOAD,2023-01-12 15:02:40,15.08861418,0.0003202,53.2174,90.9469,27.1175,332.9984,0.00098915,0.00015499,0.0,0 STARLINK-3448,1 51728U 22016Q   23012.62685749  .00015499  00000-0  98915-3 0  9992,2 51728  53.2174  90.9469 0003202  27.1175 332.9984 15.08861418 50773,6917.815,95.436,541.895,537.465,0.0
51728.0,STARLINK-3448,PAYLOAD,2023-01-13 11:42:42,15.08815077,0.0002701,53.218,87.0806,27.5841,332.5294,-0.00016356,-2.889e-05,0.0,0 STARLINK-3448,1 51728U 22016Q   23013.48799529 -.00002889  00000-0 -16356-3 0  9999,2 51728  53.2180  87.0806 0002701  27.5841 332.5294 15.08815077 50904,6917.956999999999,95.439,541.69,537.953,0.0
51728.0,STARLINK-3448,PAYLOAD,2023-01-13 21:15:02,15.08822564,0.0002748,53.2183,85.2963,27.5917,332.5221,0.00011975,1.617e-05,0.0,0 STARLINK-3448,1 51728U 22016Q   23013.88544065  .00001617  00000-0  11975-3 0  9994,2 51728  53.2183  85.2963 0002748  27.5917 332.5221 15.08822564 49835,6917.934,95.439,541.7,537.898,0.0
51728.0,STARLINK-3448,PAYLOAD,2023-01-14 06:47:20,15.08835653,0.000275,53.2178,83.5117,25.6832,334.4296,0.00069832,0.00010842,0.0,0 STARLINK-3448,1 51728U 22016Q   23014.28288109  .00010842  00000-0  69832-3 0  9998,2 51728  53.2178  83.5117 0002750  25.6832 334.4296 15.08835653 51029,6917.894,95.438,541.661,537.856,0.0
51728.0,STARLINK-3448,PAYLOAD,2023-01-14 11:33:30,15.08864199,0.0002634,53.2161,82.6217,30.8887,329.226,0.0021221,0.0003367,0.0,0 STARLINK-3448,1 51728U 22016Q   23014.48160048  .00033670  00000-0  21221-2 0  9994,2 51728  53.2161  82.6217 0002634  30.8887 329.2260 15.08864199 51054,6917.806,95.436,541.494,537.849,0.0
